{
  "norad_id": 67330,
  "name": "STARLINK-36483",
  "history": [
    {
      "epoch": "2026-03-28T16:52:15.307680Z",
      "apogee_km": 483.88841622981636,
      "perigee_km": 482.12825800503197,
      "latitude_deg": 1.9256327806791314e-05,
      "longitude_deg": 138.96843867210652,
      "height_km": 482.8925539642131,
      "semi_major_axis_km": 6861.145337117424,
      "eccentricity": 0.00012827,
      "inclination_deg": 42.9986,
      "raan_deg": 218.1518,
      "arg_perigee_deg": 262.9645,
      "mean_anomaly_deg": 97.1061,
      "mean_motion_rev_day": 15.27593612
    },
    {
      "epoch": "2026-03-29T08:33:49.320576Z",
      "apogee_km": 483.61728615343145,
      "perigee_km": 482.3098348306239,
      "latitude_deg": 3.653219035873812e-05,
      "longitude_deg": -100.76134286718246,
      "height_km": 482.76255218136714,
      "semi_major_axis_km": 6861.100560492027,
      "eccentricity": 9.528e-05,
      "inclination_deg": 42.9983,
      "raan_deg": 214.4582,
      "arg_perigee_deg": 267.9948,
      "mean_anomaly_deg": 92.0795,
      "mean_motion_rev_day": 15.27608566
    },
    {
      "epoch": "2026-03-30T14:22:48.175680Z",
      "apogee_km": 483.86555906105514,
      "perigee_km": 482.11995042885155,
      "latitude_deg": -3.1341146226726904e-05,
      "longitude_deg": 163.7532422383455,
      "height_km": 482.63772450893043,
      "semi_major_axis_km": 6861.129754744953,
      "eccentricity": 0.00012721,
      "inclination_deg": 42.9992,
      "raan_deg": 207.4426,
      "arg_perigee_deg": 278.6683,
      "mean_anomaly_deg": 81.4024,
      "mean_motion_rev_day": 15.27598816
    },
    {
      "epoch": "2026-03-30T15:56:57.501024Z",
      "apogee_km": 484.07842268926015,
      "perigee_km": 481.88492304954434,
      "latitude_deg": 2.0027620039694023e-05,
      "longitude_deg": 139.78269439962364,
      "height_km": 482.5219416256036,
      "semi_major_axis_km": 6861.118672869402,
      "eccentricity": 0.00015985,
      "inclination_deg": 43.0006,
      "raan_deg": 207.0753,
      "arg_perigee_deg": 282.4615,
      "mean_anomaly_deg": 77.6058,
      "mean_motion_rev_day": 15.27602517
    },
    {
      "epoch": "2026-03-31T15:29:18.456864Z",
      "apogee_km": 483.21532772231785,
      "perigee_km": 482.6472312687756,
      "latitude_deg": 4.3327033355576365e-05,
      "longitude_deg": 140.18848582171753,
      "height_km": 482.6210473902107,
      "semi_major_axis_km": 6861.068279495546,
      "eccentricity": 4.14e-05,
      "inclination_deg": 42.9995,
      "raan_deg": 201.5351,
      "arg_perigee_deg": 287.6194,
      "mean_anomaly_deg": 72.4613,
      "mean_motion_rev_day": 15.27619347
    },
    {
      "epoch": "2026-04-01T13:27:30.096864Z",
      "apogee_km": 484.2580661106631,
      "perigee_km": 481.80176835429484,
      "latitude_deg": -3.56198938793868e-05,
      "longitude_deg": 164.56973108809345,
      "height_km": 482.4874112167208,
      "semi_major_axis_km": 6861.166917232479,
      "eccentricity": 0.000179,
      "inclination_deg": 43.0018,
      "raan_deg": 196.3672,
      "arg_perigee_deg": 285.0895,
      "mean_anomaly_deg": 74.9758,
      "mean_motion_rev_day": 15.27586405
    },
    {
      "epoch": "2026-04-02T14:33:59.474304Z",
      "apogee_km": 483.9387366969695,
      "perigee_km": 481.9309126381977,
      "latitude_deg": 4.289626709583404e-06,
      "longitude_deg": 141.00611310516436,
      "height_km": 482.70932955825873,
      "semi_major_axis_km": 6861.071824667583,
      "eccentricity": 0.00014632,
      "inclination_deg": 42.9999,
      "raan_deg": 190.4571,
      "arg_perigee_deg": 270.1275,
      "mean_anomaly_deg": 89.9409,
      "mean_motion_rev_day": 15.27618163
    },
    {
      "epoch": "2026-04-03T14:06:20.265984Z",
      "apogee_km": 484.9710569302406,
      "perigee_km": 481.3249700740662,
      "latitude_deg": -2.110233813443253e-05,
      "longitude_deg": 141.412637411301,
      "height_km": 483.25763924726533,
      "semi_major_axis_km": 6861.285013502154,
      "eccentricity": 0.0002657,
      "inclination_deg": 43.0033,
      "raan_deg": 184.917,
      "arg_perigee_deg": 259.5169,
      "mean_anomaly_deg": 100.5383,
      "mean_motion_rev_day": 15.27546966
    },
    {
      "epoch": "2026-04-04T12:04:33.349728Z",
      "apogee_km": 483.7629830534879,
      "perigee_km": 482.27562159027093,
      "latitude_deg": 4.870181193806396e-05,
      "longitude_deg": 165.79040753752128,
      "height_km": 482.5508864505493,
      "semi_major_axis_km": 6861.156302321879,
      "eccentricity": 0.00010839,
      "inclination_deg": 43.001,
      "raan_deg": 179.7515,
      "arg_perigee_deg": 289.2297,
      "mean_anomaly_deg": 70.8438,
      "mean_motion_rev_day": 15.2758995
    },
    {
      "epoch": "2026-04-05T11:36:53.186688Z",
      "apogee_km": 483.60487020775327,
      "perigee_km": 482.2425379943479,
      "latitude_deg": -1.2598831284110287e-05,
      "longitude_deg": 166.19988086954785,
      "height_km": 482.5607403519342,
      "semi_major_axis_km": 6861.060704101051,
      "eccentricity": 9.928e-05,
      "inclination_deg": 42.9981,
      "raan_deg": 174.2104,
      "arg_perigee_deg": 281.7835,
      "mean_anomaly_deg": 78.2905,
      "mean_motion_rev_day": 15.27621877
    },
    {
      "epoch": "2026-04-05T14:45:11.676672Z",
      "apogee_km": 484.2708621025113,
      "perigee_km": 481.5662340054678,
      "latitude_deg": -2.2628025352180232e-05,
      "longitude_deg": 118.25753598168306,
      "height_km": 482.3707670102278,
      "semi_major_axis_km": 6861.055548053989,
      "eccentricity": 0.0001971,
      "inclination_deg": 43.0011,
      "raan_deg": 173.474,
      "arg_perigee_deg": 283.9084,
      "mean_anomaly_deg": 76.1548,
      "mean_motion_rev_day": 15.27623599
    },
    {
      "epoch": "2026-04-06T04:52:36.316704Z",
      "apogee_km": 483.3595419710118,
      "perigee_km": 482.59617433189305,
      "latitude_deg": -4.064640142971134e-05,
      "longitude_deg": -97.50218322453124,
      "height_km": 483.12990687481073,
      "semi_major_axis_km": 6861.114858151452,
      "eccentricity": 5.563e-05,
      "inclination_deg": 42.9972,
      "raan_deg": 170.147,
      "arg_perigee_deg": 189.0674,
      "mean_anomaly_deg": 171.0167,
      "mean_motion_rev_day": 15.27603791
    },
    {
      "epoch": "2026-04-07T10:41:34.791648Z",
      "apogee_km": 483.9701149889561,
      "perigee_km": 482.0559913471234,
      "latitude_deg": -5.102428571999502e-05,
      "longitude_deg": 167.01604724051876,
      "height_km": 482.89396153573944,
      "semi_major_axis_km": 6861.150053168039,
      "eccentricity": 0.00013949,
      "inclination_deg": 43.0012,
      "raan_deg": 163.1334,
      "arg_perigee_deg": 263.7559,
      "mean_anomaly_deg": 96.3133,
      "mean_motion_rev_day": 15.27592037
    },
    {
      "epoch": "2026-04-08T10:13:55.875360Z",
      "apogee_km": 484.5198583627089,
      "perigee_km": 481.55198940275386,
      "latitude_deg": -3.429333647150593e-05,
      "longitude_deg": 167.42639316779687,
      "height_km": 482.64200225124375,
      "semi_major_axis_km": 6861.172923882731,
      "eccentricity": 0.00021628,
      "inclination_deg": 43.0065,
      "raan_deg": 157.5983,
      "arg_perigee_deg": 276.6543,
      "mean_anomaly_deg": 83.4062,
      "mean_motion_rev_day": 15.27584399
    },
    {
      "epoch": "2026-04-09T20:45:21.491712Z",
      "apogee_km": 483.84599649546817,
      "perigee_km": 482.09504185657534,
      "latitude_deg": -5.402813108979363e-05,
      "longitude_deg": 0.023491670389922725,
      "height_km": 482.80911315597257,
      "semi_major_axis_km": 6861.107519176022,
      "eccentricity": 0.0001276,
      "inclination_deg": 43.0015,
      "raan_deg": 149.47,
      "arg_perigee_deg": 265.9497,
      "mean_anomaly_deg": 94.1208,
      "mean_motion_rev_day": 15.27606242
    },
    {
      "epoch": "2026-04-10T04:36:08.510688Z",
      "apogee_km": 484.00785655440814,
      "perigee_km": 482.03321541555124,
      "latitude_deg": -1.2923711353555577e-05,
      "longitude_deg": -119.84331770538034,
      "height_km": 483.4952615385972,
      "semi_major_axis_km": 6861.157535984979,
      "eccentricity": 0.0001439,
      "inclination_deg": 43.0005,
      "raan_deg": 147.6213,
      "arg_perigee_deg": 224.9793,
      "mean_anomaly_deg": 135.0942,
      "mean_motion_rev_day": 15.27589538
    },
    {
      "epoch": "2026-04-11T19:50:03.952896Z",
      "apogee_km": 483.67021942679,
      "perigee_km": 482.36797199982357,
      "latitude_deg": -3.767758603193212e-05,
      "longitude_deg": 0.8318397292233729,
      "height_km": 483.15961772082,
      "semi_major_axis_km": 6861.156095713307,
      "eccentricity": 9.49e-05,
      "inclination_deg": 42.9995,
      "raan_deg": 138.3887,
      "arg_perigee_deg": 235.9624,
      "mean_anomaly_deg": 124.1137,
      "mean_motion_rev_day": 15.27590019
    },
    {
      "epoch": "2026-04-12T19:22:24.824064Z",
      "apogee_km": 484.3450849420915,
      "perigee_km": 481.72905649240784,
      "latitude_deg": -1.2743925014334063e-05,
      "longitude_deg": 1.241484685332859,
      "height_km": 482.811512745358,
      "semi_major_axis_km": 6861.174070717249,
      "eccentricity": 0.00019064,
      "inclination_deg": 43.0029,
      "raan_deg": 132.852,
      "arg_perigee_deg": 270.1308,
      "mean_anomaly_deg": 89.9325,
      "mean_motion_rev_day": 15.27584016
    },
    {
      "epoch": "2026-04-14T18:27:06.020352Z",
      "apogee_km": 484.44506749547236,
      "perigee_km": 481.62924162244235,
      "latitude_deg": 2.1828168569651392e-06,
      "longitude_deg": 2.054021773113707,
      "height_km": 483.1394639831648,
      "semi_major_axis_km": 6861.1741545589575,
      "eccentricity": 0.0002052,
      "inclination_deg": 43.0082,
      "raan_deg": 121.7696,
      "arg_perigee_deg": 256.6841,
      "mean_anomaly_deg": 103.3782,
      "mean_motion_rev_day": 15.27583988
    }
  ]
}